{"type": "FeatureCollection", "features": [ {"type": "Feature", "properties": {"norad_id": 57401, "name": "TIANMU-1 09", "group": "weather", "lat": 30.508420304399632, "lon": -142.04962419157167, "alt_km": 477.80985842115206, "timestamp": "2025-12-10T09:57:44.348147+00:00", "meta": {"OBJECT_NAME": "TIANMU-1 09", "OBJECT_ID": "2023-101C", "EPOCH": "2025-12-09T20:44:20.858784", "MEAN_MOTION": 15.28017101, "ECCENTRICITY": 0.0006817, "INCLINATION": 97.2822, "RA_OF_ASC_NODE": 33.0906, "ARG_OF_PERICENTER": 91.5267, "MEAN_ANOMALY": 268.6753, "EPHEMERIS_TYPE": 0, "CLASSIFICATION_TYPE": "U", "NORAD_CAT_ID": 57401, "ELEMENT_SET_NO": 999, "REV_AT_EPOCH": 13271, "BSTAR": 0.0004251, "MEAN_MOTION_DOT": 0.00011559, "MEAN_MOTION_DDOT": 0}, "tle": {"line1": "1 57401U 23101C   25343.86413031  .00011559  00000+0  42510-3 0  9992", "line2": "2 57401  97.2822  33.0906 0006817  91.5267 268.6753 15.28017101132719"}}, "geometry": {"type": "Point", "coordinates": [-142.04962419157167, 30.508420304399632]}}, {"type": "Feature", "properties": {"norad_id": 57402, "name": "TIANMU-1 10", "group": "weather", "lat": -38.75711609105429, "lon": 40.37512678655866, "alt_km": 491.9394644081631, "timestamp": "2025-12-10T09:57:44.348160+00:00", "meta": {"OBJECT_NAME": "TIANMU-1 10", "OBJECT_ID": "2023-101D", "EPOCH": "2025-12-09T19:59:17.623968", "MEAN_MOTION": 15.28006823, "ECCENTRICITY": 0.0008569, "INCLINATION": 97.2902, "RA_OF_ASC_NODE": 33.9067, "ARG_OF_PERICENTER": 91.7649, "MEAN_ANOMALY": 268.4572, "EPHEMERIS_TYPE": 0, "CLASSIFICATION_TYPE": "U", "NORAD_CAT_ID": 57402, "ELEMENT_SET_NO": 999, "REV_AT_EPOCH": 13270, "BSTAR": 0.00043272, "MEAN_MOTION_DOT": 0.00011769, "MEAN_MOTION_DDOT": 0}, "tle": {"line1": "1 57402U 23101D   25343.83284287  .00011769  00000+0  43272-3 0  9998", "line2": "2 57402  97.2902  33.9067 0008569  91.7649 268.4572 15.28006823132703"}}, "geometry": {"type": "Point", "coordinates": [40.37512678655866, -38.75711609105429]}}, {"type": "Feature", "properties": {"norad_id": 57490, "name": "FENGYUN 3F", "group": "weather", "lat": 43.55690002584603, "lon": 44.365743810634875, "alt_km": 821.7395665737713, "timestamp": "2025-12-10T09:57:44.348171+00:00", "meta": {"OBJECT_NAME": "FENGYUN 3F", "OBJECT_ID": "2023-111A", "EPOCH": "2025-12-10T04:40:52.383072", "MEAN_MOTION": 14.19892534, "ECCENTRICITY": 6.48e-05, "INCLINATION": 98.7087, "RA_OF_ASC_NODE": 52.5295, "ARG_OF_PERICENTER": 97.0114, "MEAN_ANOMALY": 263.1136, "EPHEMERIS_TYPE": 0, "CLASSIFICATION_TYPE": "U", "NORAD_CAT_ID": 57490, "ELEMENT_SET_NO": 999, "REV_AT_EPOCH": 12204, "BSTAR": 8.6087e-05, "MEAN_MOTION_DOT": 1.39e-06, "MEAN_MOTION_DDOT": 0}, "tle": {"line1": "1 57490U 23111A   25344.19505073  .00000139  00000+0  86087-4 0  9996", "line2": "2 57490  98.7087  52.5295 0000648  97.0114 263.1136 14.19892534122041"}}, "geometry": {"type": "Point", "coordinates": [44.365743810634875, 43.55690002584603]}}, {"type": "Feature", "properties": {"norad_id": 58584, "name": "ARKTIKA-M 2", "group": "weather", "lat": 47.63842306006532, "lon": -151.2268912752956, "alt_km": 27116.246069830337, "timestamp": "2025-12-10T09:57:44.348183+00:00", "meta": {"OBJECT_NAME": "ARKTIKA-M 2", "OBJECT_ID": "2023-198A", "EPOCH": "2025-12-08T20:10:13.977120", "MEAN_MOTION": 2.0060476, "ECCENTRICITY": 0.68646991, "INCLINATION": 63.2247, "RA_OF_ASC_NODE": 175.3152, "ARG_OF_PERICENTER": 268.1185, "MEAN_ANOMALY": 18.8267, "EPHEMERIS_TYPE": 0, "CLASSIFICATION_TYPE": "U", "NORAD_CAT_ID": 58584, "ELEMENT_SET_NO": 999, "REV_AT_EPOCH": 1450, "BSTAR": 0, "MEAN_MOTION_DOT": 1.66e-06, "MEAN_MOTION_DDOT": 0}, "tle": {"line1": "1 58584U 23198A   25342.84043955  .00000166  00000+0  00000+0 0  9998", "line2": "2 58584  63.2247 175.3152 6864699 268.1185  18.8267  2.00604760 14506"}}, "geometry": {"type": "Point", "coordinates": [-151.2268912752956, 47.63842306006532]}}, {"type": "Feature", "properties": {"norad_id": 58645, "name": "TIANMU-1 11", "group": "weather", "lat": 10.676619674973722, "lon": -174.5244774330262, "alt_km": 498.62536663563696, "timestamp": "2025-12-10T09:57:44.348199+00:00", "meta": {"OBJECT_NAME": "TIANMU-1 11", "OBJECT_ID": "2023-205A", "EPOCH": "2025-12-09T20:37:13.609056", "MEAN_MOTION": 15.24544377, "ECCENTRICITY": 0.0008148, "INCLINATION": 97.3609, "RA_OF_ASC_NODE": 3.5328, "ARG_OF_PERICENTER": 322.2029, "MEAN_ANOMALY": 37.8635, "EPHEMERIS_TYPE": 0, "CLASSIFICATION_TYPE": "U", "NORAD_CAT_ID": 58645, "ELEMENT_SET_NO": 999, "REV_AT_EPOCH": 10865, "BSTAR": 0.00040058, "MEAN_MOTION_DOT": 9.803e-05, "MEAN_MOTION_DDOT": 0}, "tle": {"line1": "1 58645U 23205A   25343.85918529  .00009803  00000+0  40058-3 0  9993", "line2": "2 58645  97.3609   3.5328 0008148 322.2029  37.8635 15.24544377108650"}}, "geometry": {"type": "Point", "coordinates": [-174.5244774330262, 10.676619674973722]}}, {"type": "Feature", "properties": {"norad_id": 58646, "name": "TIANMU-1 12", "group": "weather", "lat": 22.120640156382294, "lon": 0.8736324453331831, "alt_km": 491.5834144805631, "timestamp": "2025-12-10T09:57:44.348209+00:00", "meta": {"OBJECT_NAME": "TIANMU-1 12", "OBJECT_ID": "2023-205B", "EPOCH": "2025-12-09T21:15:42.555744", "MEAN_MOTION": 15.24425295, "ECCENTRICITY": 0.0006046, "INCLINATION": 97.3597, "RA_OF_ASC_NODE": 3.3655, "ARG_OF_PERICENTER": 304.2794, "MEAN_ANOMALY": 55.7871, "EPHEMERIS_TYPE": 0, "CLASSIFICATION_TYPE": "U", "NORAD_CAT_ID": 58646, "ELEMENT_SET_NO": 999, "REV_AT_EPOCH": 10864, "BSTAR": 0.00041839, "MEAN_MOTION_DOT": 0.00010202, "MEAN_MOTION_DDOT": 0}, "tle": {"line1": "1 58646U 23205B   25343.88590921  .00010202  00000+0  41839-3 0  9992", "line2": "2 58646  97.3597   3.3655 0006046 304.2794  55.7871 15.24425295108649"}}, "geometry": {"type": "Point", "coordinates": [0.8736324453331831, 22.120640156382294]}}, {"type": "Feature", "properties": {"norad_id": 58647, "name": "TIANMU-1 13", "group": "weather", "lat": -17.893449506564547, "lon": -178.30738215321009, "alt_km": 496.76325287349846, "timestamp": "2025-12-10T09:57:44.348262+00:00", "meta": {"OBJECT_NAME": "TIANMU-1 13", "OBJECT_ID": "2023-205C", "EPOCH": "2025-12-09T20:29:36.802752", "MEAN_MOTION": 15.24468145, "ECCENTRICITY": 0.0006048, "INCLINATION": 97.3624, "RA_OF_ASC_NODE": 3.5338, "ARG_OF_PERICENTER": 280.519, "MEAN_ANOMALY": 79.5366, "EPHEMERIS_TYPE": 0, "CLASSIFICATION_TYPE": "U", "NORAD_CAT_ID": 58647, "ELEMENT_SET_NO": 999, "REV_AT_EPOCH": 10863, "BSTAR": 0.00040835, "MEAN_MOTION_DOT": 9.968e-05, "MEAN_MOTION_DDOT": 0}, "tle": {"line1": "1 58647U 23205C   25343.85389818  .00009968  00000+0  40835-3 0  9993", "line2": "2 58647  97.3624   3.5338 0006048 280.5190  79.5366 15.24468145108632"}}, "geometry": {"type": "Point", "coordinates": [-178.30738215321009, -17.893449506564547]}}, {"type": "Feature", "properties": {"norad_id": 58648, "name": "TIANMU-1 14", "group": "weather", "lat": -69.54517692310296, "lon": 23.699700768485204, "alt_km": 494.976991612818, "timestamp": "2025-12-10T09:57:44.348274+00:00", "meta": {"OBJECT_NAME": "TIANMU-1 14", "OBJECT_ID": "2023-205D", "EPOCH": "2025-12-09T20:05:39.727104", "MEAN_MOTION": 15.24451232, "ECCENTRICITY": 0.0006905, "INCLINATION": 97.3556, "RA_OF_ASC_NODE": 2.8689, "ARG_OF_PERICENTER": 285.7521, "MEAN_ANOMALY": 74.2955, "EPHEMERIS_TYPE": 0, "CLASSIFICATION_TYPE": "U", "NORAD_CAT_ID": 58648, "ELEMENT_SET_NO": 999, "REV_AT_EPOCH": 10863, "BSTAR": 0.00039513, "MEAN_MOTION_DOT": 9.639e-05, "MEAN_MOTION_DDOT": 0}, "tle": {"line1": "1 58648U 23205D   25343.83726536  .00009639  00000+0  39513-3 0  9990", "line2": "2 58648  97.3556   2.8689 0006905 285.7521  74.2955 15.24451232108630"}}, "geometry": {"type": "Point", "coordinates": [23.699700768485204, -69.54517692310296]}}, {"type": "Feature", "properties": {"norad_id": 58660, "name": "TIANMU-1 19", "group": "weather", "lat": 23.494037718595244, "lon": -81.2872333432001, "alt_km": 482.91340651031896, "timestamp": "2025-12-10T09:57:44.348310+00:00", "meta": {"OBJECT_NAME": "TIANMU-1 19", "OBJECT_ID": "2023-208A", "EPOCH": "2025-12-09T17:33:40.404960", "MEAN_MOTION": 15.27761661, "ECCENTRICITY": 0.0004063, "INCLINATION": 97.4389, "RA_OF_ASC_NODE": 94.775, "ARG_OF_PERICENTER": 266.5058, "MEAN_ANOMALY": 93.5716, "EPHEMERIS_TYPE": 0, "CLASSIFICATION_TYPE": "U", "NORAD_CAT_ID": 58660, "ELEMENT_SET_NO": 999, "REV_AT_EPOCH": 10836, "BSTAR": 0.00051751, "MEAN_MOTION_DOT": 0.00013974, "MEAN_MOTION_DDOT": 0}, "tle": {"line1": "1 58660U 23208A   25343.73171765  .00013974  00000+0  51751-3 0  9999", "line2": "2 58660  97.4389  94.7750 0004063 266.5058  93.5716 15.27761661108365"}}, "geometry": {"type": "Point", "coordinates": [-81.2872333432001, 23.494037718595244]}}, {"type": "Feature", "properties": {"norad_id": 58661, "name": "TIANMU-1 20", "group": "weather", "lat": -40.151761254478586, "lon": -90.42084125518822, "alt_km": 483.02875003357076, "timestamp": "2025-12-10T09:57:44.348325+00:00", "meta": {"OBJECT_NAME": "TIANMU-1 20", "OBJECT_ID": "2023-208B", "EPOCH": "2025-12-09T20:26:05.292096", "MEAN_MOTION": 15.28957488, "ECCENTRICITY": 0.0006309, "INCLINATION": 97.4327, "RA_OF_ASC_NODE": 95.3393, "ARG_OF_PERICENTER": 278.1223, "MEAN_ANOMALY": 81.9301, "EPHEMERIS_TYPE": 0, "CLASSIFICATION_TYPE": "U", "NORAD_CAT_ID": 58661, "ELEMENT_SET_NO": 999, "REV_AT_EPOCH": 10845, "BSTAR": 0.00052034, "MEAN_MOTION_DOT": 0.0001458, "MEAN_MOTION_DDOT": 0}, "tle": {"line1": "1 58661U 23208B   25343.85145014  .00014580  00000+0  52034-3 0  9990", "line2": "2 58661  97.4327  95.3393 0006309 278.1223  81.9301 15.28957488108452"}}, "geometry": {"type": "Point", "coordinates": [-90.42084125518822, -40.151761254478586]}}]}